ROBUSTA-1B              
1 42792U 17036AD  17345.76937224  .00001541  00000-0  71513-4 0  9993
2 42792  97.4284  43.4462 0012007  22.3748 337.8010 15.21498127 26021
